OBJECT_NAME,OBJECT_ID,EPOCH,MEAN_MOTION,ECCENTRICITY,INCLINATION,RA_OF_ASC_NODE,ARG_OF_PERICENTER,MEAN_ANOMALY,EPHEMERIS_TYPE,CLASSIFICATION_TYPE,NORAD_CAT_ID,ELEMENT_SET_NO,REV_AT_EPOCH,BSTAR,MEAN_MOTION_DOT,MEAN_MOTION_DDOT
COSMOS 2251 DEB,1993-036UE,2024-02-24T08:41:40.336224,13.52964157,0.0389879,73.9174,186.9027,336.7134,50.388,0,U,34544,999,74052,0.00065743,6.85e-06,0
COSMOS 2251 DEB,1993-036UF,2024-02-24T04:00:38.604672,15.16753199,0.0022894,74.0182,87.7206,312.3625,47.5631,0,U,34545,999,79644,0.0072994,0.00147091,0
COSMOS 2251 DEB,1993-036UG,2024-02-24T09:24:43.864704,14.40095202,0.0026125,74.0345,30.0107,265.4187,218.5438,0,U,34546,999,78587,0.0010989,3.457e-05,0
COSMOS 2251 DEB,1993-036UH,2024-02-23T09:05:12.061248,14.53960423,0.0034014,74.037,283.7703,167.3427,192.8598,0,U,34547,999,78892,0.0012247,5.173e-05,0
COSMOS 2251 DEB,1993-036UL,2024-02-23T21:33:50.732640,14.54938023,0.0120539,73.9821,218.083,184.844,175.1568,0,U,34550,999,77752,0.0089658,0.00042735,0
COSMOS 2251 DEB,1993-036UN,2024-02-23T18:57:33.685344,14.70103912,0.0025304,74.0246,274.9021,127.0418,358.3783,0,U,34552,999,78808,0.0028757,0.00017386,0
COSMOS 2251 DEB,1993-036UP,2024-02-24T07:01:19.557408,14.46404252,0.0027537,74.0327,351.9171,229.0409,285.8658,0,U,34553,999,78608,0.0013784,4.951e-05,0
COSMOS 2251 DEB,1993-036UQ,2024-02-22T07:14:42.146880,14.35574794,0.0026122,74.0378,71.1276,296.6079,76.4135,0,U,34554,999,78284,0.00042909,1.215e-05,0
COSMOS 2251 DEB,1993-036UR,2024-02-23T21:17:23.762976,14.78509426,0.0017818,74.0174,203.3734,55.3187,68.2542,0,U,34555,999,79037,0.0046301,0.00034045,0
COSMOS 2251 DEB,1993-036US,2024-02-23T19:19:45.290784,14.53820767,0.0021772,74.0285,312.8083,178.6301,244.3347,0,U,34556,999,78690,0.0017055,7.164e-05,0
COSMOS 2251 DEB,1993-036UW,2024-02-23T05:12:36.887904,14.51960022,0.00282,74.0278,324.1469,204.1951,280.353,0,U,34560,999,78627,0.0015448,6.245e-05,0
COSMOS 2251 DEB,1993-036UX,2024-02-23T17:00:01.707840,14.75212942,0.0031202,74.0264,154.9498,35.0254,325.2963,0,U,34561,999,79208,0.0033665,0.00022987,0
COSMOS 2251 DEB,1993-036UZ,2024-02-23T22:05:35.216736,14.42241838,0.0016161,74.043,348.0079,244.043,182.879,0,U,34563,999,78698,0.00061504,2.005e-05,0
COSMOS 2251 DEB,1993-036VA,2024-02-24T01:11:29.270976,14.38517912,0.0021007,74.0353,12.9119,278.4472,212.5059,0,U,34564,999,78603,0.0004172,1.252e-05,0
COSMOS 2251 DEB,1993-036VD,2024-02-24T12:34:01.607808,14.22750942,0.0074669,74.0399,258.5444,130.7409,250.7977,0,U,34567,999,77873,0.00032082,7.15e-06,0
COSMOS 2251 DEB,1993-036VF,2024-02-23T21:31:25.794912,14.20913885,0.0165937,73.9949,304.3186,281.9499,208.5918,0,U,34569,999,77610,0.00069338,1.697e-05,0
COSMOS 2251 DEB,1993-036VG,2024-02-24T08:27:43.667136,13.97334154,0.0196739,73.9591,279.4369,299.6509,237.7176,0,U,34570,999,76445,0.00068932,1.113e-05,0
COSMOS 2251 DEB,1993-036VH,2024-02-23T03:19:49.848960,14.31180129,0.0093858,74.0508,319.7208,160.1574,200.3268,0,U,34571,999,77811,0.0018215,5.025e-05,0
COSMOS 2251 DEB,1993-036VJ,2024-02-23T14:43:17.853312,14.33164036,0.0090329,74.0145,257.2392,128.1614,289.6585,0,U,34572,999,77890,0.0022348,6.402e-05,0
COSMOS 2251 DEB,1993-036VL,2024-02-23T22:10:46.919424,14.56933649,0.0086894,74.0721,224.1322,61.5283,89.5774,0,U,34574,999,79158,0.0011379,5.353e-05,0
COSMOS 2251 DEB,1993-036VN,2024-02-23T22:47:46.145760,14.47795337,0.0010294,74.0386,297.2121,221.6585,151.601,0,U,34576,999,78920,0.00074325,2.724e-05,0
COSMOS 2251 DEB,1993-036VP,2024-02-24T02:48:58.760064,14.73532966,0.0026696,74.0328,64.8534,356.0062,4.0893,0,U,34577,999,79695,0.0021795,0.00014251,0
COSMOS 2251 DEB,1993-036VR,2024-02-23T22:10:25.707360,14.41418827,0.003077,74.0577,5.059,240.1284,177.5742,0,U,34579,999,78682,0.00064793,2.086e-05,0
COSMOS 2251 DEB,1993-036VU,2024-02-24T00:54:59.679936,14.38300221,0.0054697,74.0204,50.9897,318.6794,41.0227,0,U,34582,999,78473,0.00083401,2.556e-05,0
COSMOS 2251 DEB,1993-036WA,2024-02-23T18:11:56.083200,14.38422152,0.0022034,74.0442,44.2582,263.1296,274.3992,0,U,34588,999,78476,0.00067845,2.049e-05,0
COSMOS 2251 DEB,1993-036WB,2024-02-23T20:38:22.627104,13.84123197,0.0255014,73.9237,95.3403,169.0528,5.8703,0,U,34589,999,75602,0.00071902,1.007e-05,0
COSMOS 2251 DEB,1993-036WC,2024-02-23T22:29:54.324384,14.53221605,0.0070146,74.0436,125.4801,60.8849,113.204,0,U,34590,999,79559,0.00015063,6.16e-06,0
COSMOS 2251 DEB,1993-036WE,2024-02-23T22:06:45.097920,14.17270472,0.015292,73.7328,224.8755,189.2834,324.2617,0,U,34609,999,77296,0.0016668,3.751e-05,0
COSMOS 2251 DEB,1993-036WF,2024-02-23T18:11:28.415328,14.00527038,0.0199192,74.0258,330.6406,250.5545,107.3971,0,U,34610,999,76324,0.0012102,2.109e-05,0
COSMOS 2251 DEB,1993-036WG,2024-02-23T21:10:22.183680,14.53895921,0.003427,74.059,278.6877,139.314,234.0741,0,U,34611,999,78777,0.00068956,2.896e-05,0
COSMOS 2251 DEB,1993-036WJ,2024-02-23T23:03:59.879808,14.18379172,0.0121748,73.967,25.7517,359.7026,65.4309,0,U,34613,999,77108,0.0030122,6.666e-05,0
COSMOS 2251 DEB,1993-036WK,2024-02-24T11:23:26.750688,13.98274113,0.0247065,73.8838,69.1562,195.5155,317.0637,0,U,34614,999,75583,0.0033391,6.161e-05,0
COSMOS 2251 DEB,1993-036WL,2024-02-24T01:17:51.567648,13.50510827,0.0402744,74.0041,267.5478,308.9707,207.6449,0,U,34615,999,73929,0.00064107,6.58e-06,0
COSMOS 2251 DEB,1993-036WQ,2024-02-23T22:50:57.240096,14.61233167,0.0100276,74.0484,20.8209,284.5693,74.4369,0,U,34619,999,79678,0.00042042,2.193e-05,0
COSMOS 2251 DEB,1993-036WR,2024-02-24T11:43:26.961600,14.29958206,0.0113754,74.0659,352.4818,195.1022,164.6724,0,U,34620,999,77408,0.0020559,5.663e-05,0
COSMOS 2251 DEB,1993-036WT,2024-02-23T17:25:41.013696,14.17291313,0.0118464,74.043,43.4818,283.8782,252.6601,0,U,34622,999,77120,0.0014937,3.209e-05,0
COSMOS 2251 DEB,1993-036WX,2024-02-23T23:04:06.252672,14.60296675,0.0034844,74.0564,151.2268,50.4465,69.6264,0,U,34626,999,79501,0.00094489,4.576e-05,0
COSMOS 2251 DEB,1993-036XF,2024-02-23T14:05:10.566240,14.51592494,0.0048159,74.0534,197.2757,111.0204,16.4724,0,U,34634,999,79288,0.00065915,2.653e-05,0
COSMOS 2251 DEB,1993-036XG,2024-02-23T22:14:20.157216,14.5453317,0.004133,74.0488,248.4787,126.4499,302.768,0,U,34635,999,63608,0.0013563,5.825e-05,0
COSMOS 2251 DEB,1993-036XJ,2024-02-23T23:01:59.600640,14.51038606,0.0061262,74.0512,267.0533,145.0495,334.7666,0,U,34637,999,78954,0.00077748,3.126e-05,0
COSMOS 2251 DEB,1993-036XK,2024-02-24T09:23:33.698400,14.81750572,0.0013521,74.0349,166.3751,0.444,62.1175,0,U,34638,999,79338,0.0043182,0.00034256,0
COSMOS 2251 DEB,1993-036XL,2024-02-23T21:05:57.028128,14.788388,0.0029974,74.0223,213.6134,78.8479,42.4474,0,U,34639,999,79013,0.0054058,0.00040296,0
COSMOS 2251 DEB,1993-036XN,2024-02-23T23:17:29.401152,14.4392285,0.0018138,73.8397,248.1628,296.5946,213.968,0,U,34641,999,78733,0.00075676,2.56e-05,0
COSMOS 2251 DEB,1993-036XP,2024-02-24T05:45:28.101312,13.94033309,0.0219946,74.0073,34.488,357.0596,16.4042,0,U,34642,999,76158,0.0030439,4.899e-05,0
COSMOS 2251 DEB,1993-036XR,2024-02-23T17:01:48.817920,14.5117846,0.0021102,74.0352,308.8384,188.6017,202.7632,0,U,34671,999,78699,0.0012633,5.006e-05,0
COSMOS 2251 DEB,1993-036XS,2024-02-23T17:56:27.079296,14.34603512,0.0026593,74.0328,72.9053,305.7135,173.7603,0,U,34672,999,55735,0.00033843,9.34e-06,0
COSMOS 2251 DEB,1993-036XU,2024-02-23T15:28:10.593984,14.83500619,0.0074528,73.9752,17.8056,133.8148,226.9226,0,U,34674,999,79577,0.0025307,0.00021899,0
COSMOS 2251 DEB,1993-036XV,2024-02-22T18:40:08.556384,14.71608846,0.0022573,74.0277,211.1899,77.9769,282.3931,0,U,34675,999,79041,0.003818,0.00023902,0
COSMOS 2251 DEB,1993-036XY,2024-02-24T04:22:44.810976,14.29861393,0.0026139,74.0365,120.9633,328.4036,62.3603,0,U,34678,999,77996,4.796e-05,9.8e-07,0
COSMOS 2251 DEB,1993-036XZ,2024-02-23T19:32:59.686080,15.27754393,0.0024491,73.9943,289.3786,185.9466,174.1448,0,U,34679,999,79974,0.0060841,0.00170196,0
COSMOS 2251 DEB,1993-036YA,2024-02-23T02:19:12.422784,14.50028169,0.0011654,74.0483,297.2537,189.2837,321.9623,0,U,34680,999,78744,0.00087213,3.357e-05,0
COSMOS 2251 DEB,1993-036YB,2024-02-23T15:45:02.757024,14.64570719,0.0038182,74.0715,132.142,5.28,117.0995,0,U,34681,999,79574,0.0011614,6.205e-05,0
COSMOS 2251 DEB,1993-036YC,2024-02-23T22:24:18.155808,14.51003831,0.0021942,74.0404,248.339,180.0169,249.8265,0,U,34682,999,79117,0.00088597,3.489e-05,0
COSMOS 2251 DEB,1993-036YD,2024-02-23T15:43:17.355072,14.52208816,0.0026357,74.0325,265.6999,176.1164,241.5205,0,U,34683,999,78753,0.001089,4.413e-05,0
COSMOS 2251 DEB,1993-036YF,2024-02-23T19:03:17.610048,14.4801809,0.0019412,74.0357,310.7811,211.6129,218.9885,0,U,34685,999,78975,0.0010196,3.772e-05,0
COSMOS 2251 DEB,1993-036YK,2024-02-23T15:39:44.285760,13.89378745,0.0275485,74.0935,274.9072,143.3926,277.7219,0,U,34689,999,75148,0.0039255,6.475e-05,0
COSMOS 2251 DEB,1993-036YP,2024-02-23T21:01:22.110240,13.91615201,0.0228036,73.9254,23.0214,93.6716,300.211,0,U,34721,999,75979,0.0012962,2.009e-05,0
COSMOS 2251 DEB,1993-036YQ,2024-02-23T17:37:44.079744,14.08807303,0.0171486,73.8879,65.9829,120.3379,357.0775,0,U,34722,999,76967,0.00076618,1.49e-05,0
COSMOS 2251 DEB,1993-036YS,2024-02-23T02:10:41.370240,14.32907787,0.017796,74.0475,339.6005,243.5099,114.7707,0,U,34724,999,76068,0.005854,0.00019095,0
COSMOS 2251 DEB,1993-036YU,2024-02-24T10:58:39.715968,14.54199858,0.0046008,74.0312,155.2613,108.1155,252.5026,0,U,34726,999,78950,0.00061326,2.605e-05,0
COSMOS 2251 DEB,1993-036YW,2024-02-24T11:48:31.133664,14.61316675,0.0048387,74.0194,80.1472,41.0256,319.4533,0,U,34728,999,79245,0.00087089,4.345e-05,0
COSMOS 2251 DEB,1993-036YX,2024-02-23T19:51:49.906080,14.59785221,0.0023656,74.0259,197.4239,119.4799,2.4342,0,U,34729,999,78783,0.0022747,0.00010896,0
COSMOS 2251 DEB,1993-036ZA,2024-02-23T23:33:58.533408,14.45996911,0.0040585,74.0435,241.1215,197.1407,317.1523,0,U,34732,999,78697,0.00020132,6.97e-06,0
COSMOS 2251 DEB,1993-036ZE,2024-02-24T01:29:39.720192,14.61367759,0.0015865,74.0285,269.9626,134.9402,348.1164,0,U,34736,999,78697,0.0019268,9.529e-05,0
